{"type": "FeatureCollection", "features": [ {"type": "Feature", "properties": {"norad_id": 36987, "name": "FENGYUN 1C DEB", "group": "fengyun-1c-debris", "lat": -25.308836769030542, "lon": 48.70637665190133, "alt_km": 1329.8515987501523, "timestamp": "2025-12-18T15:47:11.512006+00:00", "meta": {"OBJECT_NAME": "FENGYUN 1C DEB", "OBJECT_ID": "1999-025EBT", "EPOCH": "2025-12-15T10:03:57.421440", "MEAN_MOTION": 13.45882273, "ECCENTRICITY": 0.03201232, "INCLINATION": 100.819, "RA_OF_ASC_NODE": 230.401, "ARG_OF_PERICENTER": 40.5504, "MEAN_ANOMALY": 321.9005, "EPHEMERIS_TYPE": 0, "CLASSIFICATION_TYPE": "U", "NORAD_CAT_ID": 36987, "ELEMENT_SET_NO": 999, "REV_AT_EPOCH": 60913, "BSTAR": 0.0013024129, "MEAN_MOTION_DOT": 1.009e-05, "MEAN_MOTION_DDOT": 0}, "tle": {"line1": "1 36987U 99025EBT 25349.41941460  .00001009  00000+0  13024-2 0  9991", "line2": "2 36987 100.8190 230.4010 0320123  40.5504 321.9005 13.45882273609135"}}, "geometry": {"type": "Point", "coordinates": [48.70637665190133, -25.308836769030542]}}, {"type": "Feature", "properties": {"norad_id": 36990, "name": "FENGYUN 1C DEB", "group": "fengyun-1c-debris", "lat": -83.17041206866774, "lon": 44.58984902007064, "alt_km": 1081.1092012803147, "timestamp": "2025-12-18T15:47:11.512015+00:00", "meta": {"OBJECT_NAME": "FENGYUN 1C DEB", "OBJECT_ID": "1999-025EBW", "EPOCH": "2025-12-05T02:36:38.289600", "MEAN_MOTION": 13.56914719, "ECCENTRICITY": 0.0292772, "INCLINATION": 96.5839, "RA_OF_ASC_NODE": 290.134, "ARG_OF_PERICENTER": 44.0413, "MEAN_ANOMALY": 318.3658, "EPHEMERIS_TYPE": 0, "CLASSIFICATION_TYPE": "U", "NORAD_CAT_ID": 36990, "ELEMENT_SET_NO": 999, "REV_AT_EPOCH": 82784, "BSTAR": 0.0013157618, "MEAN_MOTION_DOT": 1.212e-05, "MEAN_MOTION_DDOT": 0}, "tle": {"line1": "1 36990U 99025EBW 25339.10877650  .00001212  00000+0  13158-2 0  9993", "line2": "2 36990  96.5839 290.1340 0292772  44.0413 318.3658 13.56914719827842"}}, "geometry": {"type": "Point", "coordinates": [44.58984902007064, -83.17041206866774]}}, {"type": "Feature", "properties": {"norad_id": 36994, "name": "FENGYUN 1C DEB", "group": "fengyun-1c-debris", "lat": 71.7291051590107, "lon": -72.93146436363492, "alt_km": 995.8468063521559, "timestamp": "2025-12-18T15:47:11.512039+00:00", "meta": {"OBJECT_NAME": "FENGYUN 1C DEB", "OBJECT_ID": "1999-025ECA", "EPOCH": "2025-12-16T08:10:41.996640", "MEAN_MOTION": 13.90788308, "ECCENTRICITY": 0.0114556, "INCLINATION": 98.643, "RA_OF_ASC_NODE": 312.3437, "ARG_OF_PERICENTER": 283.1778, "MEAN_ANOMALY": 75.6623, "EPHEMERIS_TYPE": 0, "CLASSIFICATION_TYPE": "U", "NORAD_CAT_ID": 36994, "ELEMENT_SET_NO": 999, "REV_AT_EPOCH": 80957, "BSTAR": 0.00016418343, "MEAN_MOTION_DOT": 1.75e-06, "MEAN_MOTION_DDOT": 0}, "tle": {"line1": "1 36994U 99025ECA 25350.34076385  .00000175  00000+0  16418-3 0  9992", "line2": "2 36994  98.6430 312.3437 0114556 283.1778  75.6623 13.90788308809579"}}, "geometry": {"type": "Point", "coordinates": [-72.93146436363492, 71.7291051590107]}}, {"type": "Feature", "properties": {"norad_id": 36995, "name": "FENGYUN 1C DEB", "group": "fengyun-1c-debris", "lat": -79.08444694419407, "lon": -79.56472508134176, "alt_km": 857.6055970065772, "timestamp": "2025-12-18T15:47:11.512050+00:00", "meta": {"OBJECT_NAME": "FENGYUN 1C DEB", "OBJECT_ID": "1999-025ECB", "EPOCH": "2025-12-16T21:26:44.753856", "MEAN_MOTION": 14.04867734, "ECCENTRICITY": 0.00384747, "INCLINATION": 98.343, "RA_OF_ASC_NODE": 229.2681, "ARG_OF_PERICENTER": 299.0497, "MEAN_ANOMALY": 60.682, "EPHEMERIS_TYPE": 0, "CLASSIFICATION_TYPE": "U", "NORAD_CAT_ID": 36995, "ELEMENT_SET_NO": 999, "REV_AT_EPOCH": 63615, "BSTAR": 0.00013657502, "MEAN_MOTION_DOT": 1.81e-06, "MEAN_MOTION_DDOT": 0}, "tle": {"line1": "1 36995U 99025ECB 25350.89357354  .00000181  00000+0  13658-3 0  9991", "line2": "2 36995  98.3430 229.2681 0038474 299.0497  60.6820 14.04867734636154"}}, "geometry": {"type": "Point", "coordinates": [-79.56472508134176, -79.08444694419407]}}, {"type": "Feature", "properties": {"norad_id": 36996, "name": "FENGYUN 1C DEB", "group": "fengyun-1c-debris", "lat": 12.520581854532665, "lon": -33.74963930902957, "alt_km": 1032.4881372236969, "timestamp": "2025-12-18T15:47:11.512061+00:00", "meta": {"OBJECT_NAME": "FENGYUN 1C DEB", "OBJECT_ID": "1999-025ECC", "EPOCH": "2025-12-17T04:06:05.503392", "MEAN_MOTION": 14.11552399, "ECCENTRICITY": 0.02544253, "INCLINATION": 98.2241, "RA_OF_ASC_NODE": 143.0451, "ARG_OF_PERICENTER": 336.3443, "MEAN_ANOMALY": 200.2579, "EPHEMERIS_TYPE": 0, "CLASSIFICATION_TYPE": "U", "NORAD_CAT_ID": 36996, "ELEMENT_SET_NO": 999, "REV_AT_EPOCH": 59754, "BSTAR": 0.00062695033, "MEAN_MOTION_DOT": 1.501e-05, "MEAN_MOTION_DDOT": 0}, "tle": {"line1": "1 36996U 99025ECC 25351.17089703  .00001501  00000+0  62695-3 0  9996", "line2": "2 36996  98.2241 143.0451 0254425 336.3443 200.2579 14.11552399597542"}}, "geometry": {"type": "Point", "coordinates": [-33.74963930902957, 12.520581854532665]}}, {"type": "Feature", "properties": {"norad_id": 37003, "name": "FENGYUN 1C DEB", "group": "fengyun-1c-debris", "lat": -72.6509767902828, "lon": 166.1513860935469, "alt_km": 936.2482839098438, "timestamp": "2025-12-18T15:47:11.512071+00:00", "meta": {"OBJECT_NAME": "FENGYUN 1C DEB", "OBJECT_ID": "1999-025ECK", "EPOCH": "2025-12-18T07:48:02.434752", "MEAN_MOTION": 13.96231437, "ECCENTRICITY": 0.00968579, "INCLINATION": 98.8458, "RA_OF_ASC_NODE": 15.7304, "ARG_OF_PERICENTER": 147.1253, "MEAN_ANOMALY": 235.2095, "EPHEMERIS_TYPE": 0, "CLASSIFICATION_TYPE": "U", "NORAD_CAT_ID": 37003, "ELEMENT_SET_NO": 999, "REV_AT_EPOCH": 60735, "BSTAR": 0.00036300048, "MEAN_MOTION_DOT": 4.78e-06, "MEAN_MOTION_DDOT": 0}, "tle": {"line1": "1 37003U 99025ECK 25352.32502818  .00000478  00000+0  36300-3 0  9997", "line2": "2 37003  98.8458  15.7304 0096857 147.1253 235.2095 13.96231437607351"}}, "geometry": {"type": "Point", "coordinates": [166.1513860935469, -72.6509767902828]}}, {"type": "Feature", "properties": {"norad_id": 37006, "name": "FENGYUN 1C DEB", "group": "fengyun-1c-debris", "lat": -75.10526261637915, "lon": 23.804967254285486, "alt_km": 574.8316181952732, "timestamp": "2025-12-18T15:47:11.512081+00:00", "meta": {"OBJECT_NAME": "FENGYUN 1C DEB", "OBJECT_ID": "1999-025ECN", "EPOCH": "2025-12-13T23:33:02.281824", "MEAN_MOTION": 14.48911917, "ECCENTRICITY": 0.02552652, "INCLINATION": 99.2982, "RA_OF_ASC_NODE": 236.6727, "ARG_OF_PERICENTER": 244.4177, "MEAN_ANOMALY": 113.0432, "EPHEMERIS_TYPE": 0, "CLASSIFICATION_TYPE": "U", "NORAD_CAT_ID": 37006, "ELEMENT_SET_NO": 999, "REV_AT_EPOCH": 65132, "BSTAR": 0.00085332539, "MEAN_MOTION_DOT": 4.828e-05, "MEAN_MOTION_DDOT": 0}, "tle": {"line1": "1 37006U 99025ECN 25347.98127641  .00004828  00000+0  85333-3 0  9996", "line2": "2 37006  99.2982 236.6727 0255265 244.4177 113.0432 14.48911917651320"}}, "geometry": {"type": "Point", "coordinates": [23.804967254285486, -75.10526261637915]}}, {"type": "Feature", "properties": {"norad_id": 37008, "name": "FENGYUN 1C DEB", "group": "fengyun-1c-debris", "lat": 33.3800961088478, "lon": -62.33566344109359, "alt_km": 864.8337678757307, "timestamp": "2025-12-18T15:47:11.512091+00:00", "meta": {"OBJECT_NAME": "FENGYUN 1C DEB", "OBJECT_ID": "1999-025ECQ", "EPOCH": "2025-12-16T13:37:40.846368", "MEAN_MOTION": 14.07946281, "ECCENTRICITY": 0.00622637, "INCLINATION": 99.1344, "RA_OF_ASC_NODE": 109.4653, "ARG_OF_PERICENTER": 242.9827, "MEAN_ANOMALY": 116.4976, "EPHEMERIS_TYPE": 0, "CLASSIFICATION_TYPE": "U", "NORAD_CAT_ID": 37008, "ELEMENT_SET_NO": 999, "REV_AT_EPOCH": 60368, "BSTAR": 0.00095767269, "MEAN_MOTION_DOT": 1.61e-05, "MEAN_MOTION_DDOT": 0}, "tle": {"line1": "1 37008U 99025ECQ 25350.56783387  .00001610  00000+0  95767-3 0  9999", "line2": "2 37008  99.1344 109.4653 0062263 242.9827 116.4976 14.07946281603680"}}, "geometry": {"type": "Point", "coordinates": [-62.33566344109359, 33.3800961088478]}}, {"type": "Feature", "properties": {"norad_id": 37017, "name": "FENGYUN 1C DEB", "group": "fengyun-1c-debris", "lat": 81.01843061699077, "lon": -164.41787189798018, "alt_km": 792.2868951420242, "timestamp": "2025-12-18T15:47:11.512101+00:00", "meta": {"OBJECT_NAME": "FENGYUN 1C DEB", "OBJECT_ID": "1999-025ECZ", "EPOCH": "2025-12-17T02:42:23.641632", "MEAN_MOTION": 14.40762673, "ECCENTRICITY": 0.0282027, "INCLINATION": 98.7904, "RA_OF_ASC_NODE": 295.7523, "ARG_OF_PERICENTER": 352.2584, "MEAN_ANOMALY": 7.4295, "EPHEMERIS_TYPE": 0, "CLASSIFICATION_TYPE": "U", "NORAD_CAT_ID": 37017, "ELEMENT_SET_NO": 999, "REV_AT_EPOCH": 61224, "BSTAR": 0.0015677447, "MEAN_MOTION_DOT": 8.005e-05, "MEAN_MOTION_DDOT": 0}, "tle": {"line1": "1 37017U 99025ECZ 25351.11277363  .00008005  00000+0  15677-2 0  9999", "line2": "2 37017  98.7904 295.7523 0282027 352.2584   7.4295 14.40762673612242"}}, "geometry": {"type": "Point", "coordinates": [-164.41787189798018, 81.01843061699077]}}, {"type": "Feature", "properties": {"norad_id": 37021, "name": "FENGYUN 1C DEB", "group": "fengyun-1c-debris", "lat": 12.881626231181032, "lon": 7.206490678406948, "alt_km": 879.2080479406422, "timestamp": "2025-12-18T15:47:11.512111+00:00", "meta": {"OBJECT_NAME": "FENGYUN 1C DEB", "OBJECT_ID": "1999-025EDD", "EPOCH": "2025-12-15T19:48:38.624256", "MEAN_MOTION": 14.32286446, "ECCENTRICITY": 0.01758098, "INCLINATION": 98.3862, "RA_OF_ASC_NODE": 6.3993, "ARG_OF_PERICENTER": 242.5776, "MEAN_ANOMALY": 293.4612, "EPHEMERIS_TYPE": 0, "CLASSIFICATION_TYPE": "U", "NORAD_CAT_ID": 37021, "ELEMENT_SET_NO": 999, "REV_AT_EPOCH": 70098, "BSTAR": 0.00048256667, "MEAN_MOTION_DOT": 1.497e-05, "MEAN_MOTION_DDOT": 0}, "tle": {"line1": "1 37021U 99025EDD 25349.82544704  .00001497  00000+0  48257-3 0  9994", "line2": "2 37021  98.3862   6.3993 0175809 242.5776 293.4612 14.32286446700985"}}, "geometry": {"type": "Point", "coordinates": [7.206490678406948, 12.881626231181032]}}]}